P/2016 R4 (Gibbs),e,10.8731,168.2841,174.1307,5.334323,0.0799991,0.47562685,217.3525,01/01.0/2024,2000,g 12.5,4.0
# From MPC105543
P/2016 S1 (PANSTARRS),e,94.7396,227.6774,273.2148,8.272087,0.0414268,0.71105812,102.7285,01/01.0/2024,2000,g 12.0,4.0
# From MPC106345
P/2016 WM48 (Lemmon),e,117.6279,59.9508,36.1710,8.172499,0.0421863,0.78362238,105.5237,01/01.0/2024,2000,g 15.0,4.0
# From MPEC 2021-P47
C/2016 X1 (Lemmon),e,26.4659,256.3124,224.5170,1676,0.0000144,0.99549187,0.0000,04/28.6942/2019,2000,g  6.0,4.0
# From MPEC 2022-OB6
C/2017 B3 (LINEAR),e,54.1741,2.1893,284.8304,9782,0.0000010,0.99959795,0.0000,01/31.4059/2019,2000,g  6.0,4.0
# From MPC103847
P/2017 B4 (PANSTARRS),e,20.0584,121.4578,11.0197,4.410520,0.1064068,0.36495152,359.9130,01/05.0/2017,2000,g 14.5,4.0
# From MPEC 2022-OB6
P/2017 D1 (Fuls),e,20.7719,82.1987,7.9790,4.825789,0.0929719,0.43750288,255.3192,01/01.0/2024,2000,g 14.0,4.0
# From MPEC 2022-OB6
P/2017 D4 (PANSTARRS),e,10.5551,264.9019,212.1340,7.544428,0.0475625,0.62978961,127.0848,01/01.0/2024,2000,g 13.0,4.0
# From MPC104794
P/2017 G1 (PANSTARRS),e,4.7886,249.7082,224.2916,7.271564,0.0502646,0.65455423,140.8759,01/01.0/2024,2000,g 13.5,4.0
# From MPC108595
P/2017 G2 (PANSTARRS),e,47.9669,79.8841,105.3041,8.044015,0.0432011,0.64788884,103.5551,01/01.0/2024,2000,g 13.0,4.0
# From MPEC 2023-Y97
C/2017 K2 (PANSTARRS),h,12/19.6516/2022,87.5696,88.2326,236.2085,1.000538,1.797291,2000,1.5,4.0
# From MPEC 2021-N06
P/2017 K3 (Gasparovic),e,4.2737,354.3056,253.3392,5.585024,0.0746735,0.57889475,180.1140,01/01.0/2024,2000,g 14.5,4.0
# From MPEC 2021-P47
C/2017 K5 (PANSTARRS),h,03/26.9671/2020,82.2665,102.4283,172.0406,1.004080,7.685169,2000,5.0,4.0
# From MPEC 2022-OB6
C/2017 M4 (ATLAS),h,01/17.9274/2019,105.6266,66.0114,167.5413,1.000867,3.246081,2000,6.0,4.0
# From MPC114599
P/2017 P1 (PANSTARRS),e,7.6878,221.4624,122.7814,7.919382,0.0442249,0.31017946,89.2501,01/01.0/2024,2000,g 10.0,4.0
# From MPEC 2022-OB6
P/2017 S8 (PANSTARRS),e,29.8457,191.5344,254.8655,2.778739,0.2127808,0.39096446,100.5801,01/01.0/2024,2000,g 16.0,4.0
# From MPEC 2022-YN2
C/2017 T2 (PANSTARRS),e,57.2880,64.4438,92.8498,1488,0.0000172,0.99891825,0.0000,05/05.0958/2020,2000,g  5.0,4.0
# From MPC115882
P/2017 TW13 (Lemmon),e,44.8655,322.2244,119.9160,7.135178,0.0517127,0.71063647,104.3700,01/01.0/2024,2000,g 15.0,2.0
# From MPEC 2022-K19
P/2017 U3 (PANSTARRS),e,15.9178,165.0900,296.2240,4.922302,0.0902509,0.10024532,155.6074,01/01.0/2024,2000,g 11.0,4.0
# From MPEC 2023-A50
C/2017 U7 (PANSTARRS),h,09/15.9091/2019,142.6284,276.2937,326.4619,1.002447,6.427680,2000,8.3,2.0
# From MPC114601
P/2017 W3 (Gibbs),e,18.1732,210.1579,327.7778,7.825115,0.0450265,0.50642492,96.1291,01/01.0/2024,2000,g 10.5,4.0
# From MPEC 2022-TD3
C/2017 Y2 (PANSTARRS),h,11/04.9227/2020,128.4345,66.0450,147.9134,1.000727,4.632580,2000,15.0,4.0
# From MPC111770
P/2017 Y3 (Leonard),e,27.5867,153.9083,67.4980,9.808583,0.0320845,0.86932058,69.1029,01/01.0/2024,2000,g 16.5,4.0
# From MPEC 2021-P47
C/2018 A3 (ATLAS),e,139.5547,194.3064,86.3880,348.4535,0.0001515,0.99057674,0.0000,01/09.8111/2019,2000,g  8.5,4.0
# From MPC109147
P/2018 A5 (PANSTARRS),e,23.6148,87.7837,359.4992,5.626215,0.0738549,0.52407292,168.9718,01/01.0/2024,2000,g 15.0,4.0
# From MPEC 2023-UR6
C/2018 A6 (Gibbs),e,77.0917,340.4023,264.3227,15.01915,0.0169331,0.79901064,27.6899,01/01.0/2024,2000,g  9.0,4.0
# From MPC114601
P/2018 C1 (Lemmon-Read),e,5.1075,270.2918,235.7086,5.651225,0.0733652,0.53221273,156.8399,01/01.0/2024,2000,g 13.5,4.0
# From MPEC 2022-M88
C/2018 DO4 (Lemmon),e,160.4458,251.3946,176.3209,25.42220,0.0076893,0.90501129,12.2869,01/01.0/2024,2000,g 11.0,4.0
# From MPEC 2021-R75
C/2018 F1 (Grauer),e,46.1031,177.2852,71.5404,228.1359,0.0002860,0.98686418,0.0000,12/10.9393/2018,2000,g 11.5,4.0
# From MPEC 2023-A50
C/2018 F4 (PANSTARRS),e,78.0870,26.5165,263.2093,2826,0.0000066,0.99878048,0.0000,12/02.1699/2019,2000,g 11.0,6.0
# From MPEC 2021-Y10
C/2018 F4-A,e,78.0872,26.5167,263.2061,2708,0.0000070,0.99872752,0.0000,12/02.1580/2019,2000,g 11.0,6.0
# From MPEC 2023-D41
C/2018 F4-B,e,78.0881,26.5162,263.1918,2911,0.0000063,0.99881631,0.0000,12/02.0948/2019,2000,g 11.0,6.0
# From MPC114602
P/2018 H2 (PANSTARRS),e,7.4182,67.9911,119.5724,4.392882,0.1070483,0.54119253,234.4330,01/01.0/2024,2000,g 16.6,2.0
# From MPEC 2021-R75
C/2018 KJ3 (Lemmon),e,136.6446,91.6788,217.6183,854.7306,0.0000394,0.99576175,0.0000,09/09.8082/2019,2000,g 12.2,2.0
# From MPC114602
P/2018 L1 (PANSTARRS),e,10.5792,268.5963,18.0115,3.655436,0.1410247,0.48136023,264.8202,01/01.0/2024,2000,g 15.0,4.0
# From MPEC 2021-P47
C/2018 L2 (ATLAS),e,67.2100,242.9865,56.3464,248.9613,0.0002509,0.99309644,0.0000,12/01.3023/2018,2000,g 10.0,4.0
# From MPC114603
P/2018 L4 (PANSTARRS),e,26.6038,145.2049,140.5811,4.946984,0.0895763,0.65847688,177.5208,01/01.0/2024,2000,g 17.5,4.0
# From MPC119996
P/2018 L5 (Leonard),e,2.2089,219.0577,93.9314,3.629212,0.1425560,0.36391417,294.5808,01/01.0/2024,2000,g 14.5,4.0
# From MPEC 2022-YN2
C/2018 N2 (ASASSN),h,11/11.7294/2019,77.5509,24.4928,25.2575,1.001496,3.130824,2000,6.0,4.0
# From MPEC 2023-XP6
P/2018 P3 (PANSTARRS),e,8.9149,59.1597,306.0130,3.004109,0.1892912,0.41722709,0.9950,01/01.0/2024,2000,g 14.5,4.0
# From MPC114603
P/2018 P4 (PANSTARRS),e,23.1012,353.1401,8.4599,6.690130,0.0569577,0.45010456,107.0214,01/01.0/2024,2000,g 12.0,4.0
# From MPEC 2021-P47
C/2018 P5 (PANSTARRS),e,7.2458,216.2506,132.0050,12.85285,0.0213897,0.64256397,37.8209,01/01.0/2024,2000,g 11.0,4.0
# From MPC118841
C/2018 R3 (Lemmon),e,69.7170,324.5359,112.7129,1623,0.0000151,0.99920977,0.0000,06/08.0014/2019,2000,g  9.5,4.0
# From MPC114603
C/2018 R5 (Lemmon),e,103.7335,171.1952,178.2327,22.95343,0.0089626,0.84155112,16.2807,01/01.0/2024,2000,g 11.5,4.0
# From MPEC 2022-QC6
C/2018 S2 (TESS),e,64.1246,85.1212,290.8482,14.36863,0.0180959,0.61866699,34.0431,01/01.0/2024,2000,g  7.5,4.0
# From MPEC 2023-N01
C/2018 U1 (Lemmon),h,11/02.9088/2021,108.3240,75.5068,180.4471,1.001210,4.991375,2000,5.0,4.0
# From MPC114604
C/2018 V1 (Machholz-Fujikawa-Iwamoto),h,12/03.0606/2018,144.1413,129.2843,89.3258,1.000401,0.391727,2000,12.0,4.0
# From MPC115884
C/2018 V2 (ATLAS),e,159.1668,357.1146,319.1306,25.14215,0.0078181,0.90095683,14.5623,01/01.0/2024,2000,g 15.0,4.0
# From MPEC 2023-CD7
P/2018 VN2 (Leonard),e,18.2603,226.4411,138.9163,4.061750,0.1204022,0.47854712,244.7266,01/01.0/2024,2000,g 15.0,4.0
# From MPEC 2022-VC5
A/2018 V3,e,164.9444,308.7506,3.6155,128.4894,0.0006767,0.98959136,0.0000,09/09.8040/2019,2000,g 15.7,2.0
# From MPEC 2022-M21
C/2018 V4 (Africano),e,69.0311,78.2654,359.9832,207.4368,0.0003299,0.98459362,0.0000,03/02.0388/2019,2000,g 12.5,4.0
# From MPEC 2021-P47
P/2018 V5 (Trujillo-Sheppard),e,10.5869,171.3247,260.6987,8.968448,0.0366968,0.47589817,70.2387,01/01.0/2024,2000,g 12.5,4.0
# From MPEC 2021-P47
C/2018 W1 (Catalina),e,83.4209,233.6557,251.2079,21.70558,0.0097465,0.93750282,16.5155,01/01.0/2024,2000,g 15.5,2.0
# From MPEC 2021-P47
C/2018 W2 (Africano),h,09/05.3312/2019,116.6067,181.8570,158.1497,1.000765,1.464156,2000,9.5,4.0
# From MPEC 2023-M14
A/2018 W3,e,104.8343,251.6846,313.9458,717.3148,0.0000513,0.99402103,0.0000,04/13.0881/2021,2000,g 10.7,2.0
# From MPC119996
C/2018 X2 (Fitzsimmons),e,23.0820,340.7541,161.9392,139.0762,0.0006009,0.98478467,0.0000,07/08.6682/2019,2000,g 12.0,4.0
# From MPC114604
C/2018 X3 (PANSTARRS),e,43.4141,78.8109,359.7739,12.38761,0.0226059,0.78283133,41.2808,01/01.0/2024,2000,g 14.5,4.0
# From MPEC 2023-HD1
C/2018 Y1 (Iwamoto),e,160.4341,147.4333,357.8750,127.6780,0.0006832,0.98992875,0.0000,02/04.9505/2019,2000,g  9.0,4.0
# From MPC114605
P/2018 Y2 (Africano),e,11.6882,297.1644,162.2745,7.453522,0.0484353,0.47969642,88.3558,01/01.0/2024,2000,g 11.5,4.0
# From MPC114605
P/2019 A1 (PANSTARRS),e,13.7577,312.2429,150.7201,5.114514,0.0852114,0.56971864,162.4821,01/01.0/2024,2000,g 16.0,4.0
# From MPEC 2021-P47
P/2019 A2 (ATLAS),e,14.8644,139.4081,323.8694,5.711956,0.0721983,0.38271836,134.7462,01/01.0/2024,2000,g 10.5,4.0
# From MPEC 2022-M21
P/2019 A3 (PANSTARRS),e,15.3748,31.3556,325.6488,3.143667,0.1768273,0.26608475,349.0967,01/01.0/2024,2000,g 16.0,4.0
# From MPEC 2022-L66
P/2019 A4 (PANSTARRS),e,13.3044,119.3664,343.0310,2.614181,0.2331850,0.08728417,70.6984,01/01.0/2024,2000,g 15.0,4.0
# From MPEC 2021-P47
C/2019 A5 (PANSTARRS),e,67.5485,146.5763,355.7749,21.47692,0.0099025,0.70611576,16.5333,01/01.0/2024,2000,g  9.5,4.0
# From MPC114605
P/2019 A6 (Lemmon-PANSTARRS),e,33.2738,280.1956,156.1940,5.356930,0.0794932,0.64028783,154.9149,01/01.0/2024,2000,g 16.0,4.0
# From MPC115884
P/2019 A8 (PANSTARRS),e,2.2099,114.5515,64.3021,4.326173,0.1095338,0.22930765,223.4280,01/01.0/2024,2000,g 16.0,4.0
# From MPC118842
C/2019 A9 (PANSTARRS),e,84.3230,278.4356,237.9075,39.15698,0.0040224,0.96348301,6.5159,01/01.0/2024,2000,g 15.0,4.0
# From MPEC 2022-L66
C/2019 B1 (Africano),e,123.4269,290.3029,174.7726,138.1723,0.0006068,0.98844364,0.0000,03/18.7635/2019,2000,g 16.0,4.0
# From MPC115885
P/2019 B2 (Groeller),e,16.9823,175.7324,0.8532,3.920332,0.1269755,0.35862063,213.8390,01/01.0/2024,2000,g 14.5,4.0
# From MPEC 2023-UR6
C/2019 B3 (PANSTARRS),e,66.5497,358.4248,263.9718,7272,0.0000016,0.99906125,0.0000,01/20.0655/2021,2000,g  5.5,4.0
# From MPEC 2021-P47
C/2019 C1 (ATLAS),e,36.0516,212.3923,319.0338,646.0901,0.0000600,0.98982711,0.0000,05/04.0824/2020,2000,g 10.0,4.0
# From MPEC 2022-O08
C/2019 D1 (Flewelling),e,33.9960,231.6472,70.7240,140.7690,0.0005901,0.98871297,0.0000,05/10.4866/2019,2000,g 13.0,4.0
# From MPEC 2023-Y97
C/2019 E3 (ATLAS),e,84.2992,347.2310,280.7004,7550,0.0000015,0.99863398,0.0000,11/15.2938/2023,2000,g  2.5,4.0
# From MPEC 2023-W26
C/2019 F1 (ATLAS-Africano),h,06/22.3780/2021,54.2358,38.6637,251.3407,1.001798,3.606999,2000,5.5,4.0
# From MPEC 2021-P47
C/2019 F2 (ATLAS),e,19.2976,175.4048,11.6419,16.59255,0.0145826,0.86467347,22.9900,01/01.0/2024,2000,g 12.0,4.0
# From MPEC 2021-P47
